GLOBALSTAR M094 [+]     
1 39074U 13005C   24105.23692719 -.00000099  00000+0  25596-4 0  9992
2 39074  51.9976  48.1410 0000744  60.7769 299.3172 12.62264200518226
GLOBALSTAR M096 [+]     
1 39075U 13005D   24104.45818217 -.00000118  00000+0 -79862-4 0  9997
2 39075  52.0060  98.6913 0000608  48.8942 311.1978 12.62264260517020
GLOBALSTAR M078 [+]     
1 39076U 13005E   24105.22421691 -.00000028  00000+0  42378-3 0  9990
2 39076  51.9861 181.4594 0000622 319.9771  40.1050 12.62261429515956
GLOBALSTAR M095 [+]     
1 39077U 13005F   24104.93307678 -.00000040  00000+0  35795-3 0  9995
2 39077  51.9791 179.7508 0000516  29.0225 331.0670 12.62265234515924
GLOBALSTAR M087 [+]     
1 52888U 22064A   24105.07126102 -.00000112  00000+0  30267-4 0  9992
2 52888  51.9759  71.9473 0009117 199.5326 160.5226 13.37569581 88942
